NORAD_CAT_ID,OBJECT_NAME,OBJECT_TYPE,EPOCH,MEAN_MOTION,ECCENTRICITY,INCLINATION,RA_OF_ASC_NODE,ARG_OF_PERICENTER,MEAN_ANOMALY,BSTAR,MEAN_MOTION_DOT,MEAN_MOTION_DDOT,TLE_LINE0,TLE_LINE1,TLE_LINE2,SEMIMAJOR_AXIS,PERIOD,APOGEE,PERIGEE,DECAYED
55285.0,STARLINK-5332,PAYLOAD,2023-06-26 21:01:54,15.69926051,0.0003476,69.997,343.5872,271.9731,88.1066,1.8237e-05,1.981e-05,0.0,0 STARLINK-5332,1 55285U 23010S   23177.87632060  .00001981  00000-0  18237-4 0  9997,2 55285  69.9970 343.5872 0003476 271.9731  88.1066 15.69926051 25368,6737.246,91.724,361.452,356.769,0.0
55285.0,STARLINK-5332,PAYLOAD,2023-06-27 23:01:41,15.69922138,0.0003162,69.9981,340.5441,288.2871,71.7981,-1.1569e-06,-3.52e-06,0.0,0 STARLINK-5332,1 55285U 23010S   23178.95951120 -.00000352  00000-0 -11569-5 0  9993,2 55285  69.9981 340.5441 0003162 288.2871  71.7981 15.69922138 25532,6737.257,91.724,361.252,356.991,0.0
55285.0,STARLINK-5332,PAYLOAD,2023-06-28 18:54:27,15.69927416,0.0003267,69.9981,338.2129,271.1613,88.9208,2.0631e-05,2.269e-05,0.0,0 STARLINK-5332,1 55285U 23010S   23179.78782191  .00002269  00000-0  20631-4 0  9991,2 55285  69.9981 338.2129 0003267 271.1613  88.9208 15.69927416 25660,6737.242,91.724,361.308,356.906,0.0
55285.0,STARLINK-5332,PAYLOAD,2023-06-29 10:11:59,15.69923028,0.0003344,69.9986,336.4211,274.7943,85.2871,1.9568e-06,2.3e-07,0.0,0 STARLINK-5332,1 55285U 23010S   23180.42499240  .00000023  00000-0  19568-5 0  9998,2 55285  69.9986 336.4211 0003344 274.7943  85.2871 15.69923028 25760,6737.254,91.724,361.372,356.866,0.0
55285.0,STARLINK-5332,PAYLOAD,2023-06-29 19:22:29,15.69937679,0.000308,69.9994,335.3487,265.5978,94.4866,1.1813e-05,1.209e-05,0.0,0 STARLINK-5332,1 55285U 23010S   23180.80728367  .00001209  00000-0  11813-4 0  9996,2 55285  69.9994 335.3487 0003080 265.5978  94.4866 15.69937679 25825,6737.212,91.723,361.152,357.002,0.0
55285.0,STARLINK-5332,PAYLOAD,2023-06-30 16:47:01,15.69928624,0.0003611,69.9998,332.8388,271.5341,88.5441,1.8466e-05,2.009e-05,0.0,0 STARLINK-5332,1 55285U 23010S   23181.69931934  .00002009  00000-0  18466-4 0  9990,2 55285  69.9998 332.8388 0003611 271.5341  88.5441 15.69928624 25960,6737.238,91.724,361.536,356.67,0.0
55285.0,STARLINK-5332,PAYLOAD,2023-06-30 22:54:02,15.69911989,0.0003073,70.0012,332.1245,265.3122,94.7722,-1.2233e-05,-1.682e-05,0.0,0 STARLINK-5332,1 55285U 23010S   23181.95419645 -.00001682  00000-0 -12233-4 0  9993,2 55285  70.0012 332.1245 0003073 265.3122  94.7722 15.69911989 26008,6737.286,91.725,361.221,357.08,0.0
55285.0,STARLINK-5332,PAYLOAD,2023-07-01 09:36:18,15.69921385,0.0003406,70.0003,330.8693,272.3883,87.6923,-6.0872e-06,-9.45e-06,0.0,0 STARLINK-5332,1 55285U 23010S   23182.40021030 -.00000945  00000-0 -60872-5 0  9995,2 55285  70.0003 330.8693 0003406 272.3883  87.6923 15.69921385 26074,6737.259,91.724,361.419,356.829,0.0
55285.0,STARLINK-5332,PAYLOAD,2023-07-01 18:46:48,15.69933853,0.0003521,70.0002,329.793,270.6273,89.4519,1.5052e-05,1.598e-05,0.0,0 STARLINK-5332,1 55285U 23010S   23182.78250346  .00001598  00000-0  15052-4 0  9992,2 55285  70.0002 329.7930 0003521 270.6273  89.4519 15.69933853 26137,6737.223,91.724,361.46,356.716,0.0
55285.0,STARLINK-5332,PAYLOAD,2023-07-02 10:04:19,15.69925185,0.0003257,70.0009,328.0017,261.2925,98.7902,8.2419e-06,7.78e-06,0.0,0 STARLINK-5332,1 55285U 23010S   23183.41967427  .00000778  00000-0  82419-5 0  9999,2 55285  70.0009 328.0017 0003257 261.2925  98.7902 15.69925185 26237,6737.248,91.724,361.307,356.919,0.0
55285.0,STARLINK-5332,PAYLOAD,2023-07-03 12:04:07,15.69923628,0.0003613,69.9978,324.9555,268.2754,91.8028,2.7154e-06,1.14e-06,0.0,0 STARLINK-5332,1 55285U 23010S   23184.50286410  .00000114  00000-0  27154-5 0  9995,2 55285  69.9978 324.9555 0003613 268.2754  91.8028 15.69923628 26406,6737.252,91.724,361.552,356.683,0.0
55285.0,STARLINK-5332,PAYLOAD,2023-07-04 17:07:24,15.69928362,0.0003802,69.9979,321.5522,273.5912,86.4849,7.8001e-06,7.25e-06,0.0,0 STARLINK-5332,1 55285U 23010S   23185.71347796  .00000725  00000-0  78001-5 0  9999,2 55285  69.9979 321.5522 0003802 273.5912  86.4849 15.69928362 26590,6737.239,91.724,361.665,356.542,0.0
55285.0,STARLINK-5332,PAYLOAD,2023-07-05 11:28:26,15.69919539,0.0003545,69.9978,319.4012,273.6333,86.4457,9.8999e-06,9.77e-06,0.0,0 STARLINK-5332,1 55285U 23010S   23186.47808455  .00000977  00000-0  98999-5 0  9994,2 55285  69.9978 319.4012 0003545 273.6333  86.4457 15.69919539 26716,6737.264,91.724,361.518,356.741,0.0
55285.0,STARLINK-5332,PAYLOAD,2023-07-05 19:07:11,15.69927472,0.0003468,69.9978,318.5057,274.5097,85.5702,1.8641e-05,2.029e-05,0.0,0 STARLINK-5332,1 55285U 23010S   23186.79666224  .00002029  00000-0  18641-4 0  9990,2 55285  69.9978 318.5057 0003468 274.5097  85.5702 15.69927472 26769,6737.242,91.724,361.443,356.77,0.0
55285.0,STARLINK-5332,PAYLOAD,2023-07-06 11:56:28,15.69924193,0.0003489,69.9984,316.5363,274.4086,85.6711,1.3277e-05,1.384e-05,0.0,0 STARLINK-5332,1 55285U 23010S   23187.49754917  .00001384  00000-0  13277-4 0  9998,2 55285  69.9984 316.5363 0003489 274.4086  85.6711 15.69924193 26874,6737.251,91.724,361.467,356.765,0.0
55285.0,STARLINK-5332,PAYLOAD,2023-07-07 01:42:14,15.6991804,0.0003224,69.9984,314.9234,275.5032,84.5796,8.8834e-06,8.55e-06,0.0,0 STARLINK-5332,1 55285U 23010S   23188.07100470  .00000855  00000-0  88834-5 0  9996,2 55285  69.9984 314.9234 0003224 275.5032  84.5796 15.69918040 26968,6737.268,91.725,361.306,356.961,0.0
55285.0,STARLINK-5332,PAYLOAD,2023-07-07 18:31:30,15.69926005,0.0003142,69.9982,312.9523,269.9743,90.1093,1.2466e-05,1.287e-05,0.0,0 STARLINK-5332,1 55285U 23010S   23188.77188368  .00001287  00000-0  12466-4 0  9992,2 55285  69.9982 312.9523 0003142 269.9743  90.1093 15.69926005 27076,6737.246,91.724,361.228,356.994,0.0
55285.0,STARLINK-5332,PAYLOAD,2023-07-09 01:06:33,15.69926125,0.0003469,69.9999,309.3707,269.3739,90.7059,2.5544e-05,2.86e-05,0.0,0 STARLINK-5332,1 55285U 23010S   23190.04621858  .00002860  00000-0  25544-4 0  9990,2 55285  69.9999 309.3707 0003469 269.3739  90.7059 15.69926125 27272,6737.245,91.724,361.448,356.773,0.0
55285.0,STARLINK-5332,PAYLOAD,2023-07-09 17:55:49,15.69918836,0.0003638,69.9997,307.3992,269.2506,90.8273,-2.9623e-07,-2.49e-06,0.0,0 STARLINK-5332,1 55285U 23010S   23190.74710304 -.00000249  00000-0 -29623-6 0  9997,2 55285  69.9997 307.3992 0003638 269.2506  90.8273 15.69918836 27384,6737.266,91.724,361.582,356.68,0.0
55285.0,STARLINK-5332,PAYLOAD,2023-07-10 13:48:35,15.69934531,0.0003892,69.999,305.0704,268.761,91.3139,5.4217e-05,6.314e-05,0.0,0 STARLINK-5332,1 55285U 23010S   23191.57541652  .00006314  00000-0  54217-4 0  9999,2 55285  69.9990 305.0704 0003892 268.7610  91.3139 15.69934531 27517,6737.221,91.724,361.708,356.464,0.0
55285.0,STARLINK-5332,PAYLOAD,2023-07-11 00:30:52,15.69927403,0.0003161,70.0,303.8173,272.7944,87.289,5.9844e-05,6.99e-05,0.0,0 STARLINK-5332,1 55285U 23010S   23192.02143695  .00006990  00000-0  59844-4 0  9996,2 55285  70.0000 303.8173 0003161 272.7944  87.2890 15.69927403 27587,6737.242,91.724,361.236,356.977,0.0
55285.0,STARLINK-5332,PAYLOAD,2023-07-11 09:41:22,15.69921218,0.0003095,70.0002,302.7417,273.2204,86.8637,1.9489e-05,2.131e-05,0.0,0 STARLINK-5332,1 55285U 23010S   23192.40373838  .00002131  00000-0  19489-4 0  9996,2 55285  70.0002 302.7417 0003095 273.2204  86.8637 15.69921218 27648,6737.259,91.724,361.21,357.039,0.0
55285.0,STARLINK-5332,PAYLOAD,2023-07-12 17:48:10,15.69922319,0.0003479,70.0002,298.9807,272.2052,87.8745,-9.2023e-07,-3.23e-06,0.0,0 STARLINK-5332,1 55285U 23010S   23193.74178809 -.00000323  00000-0 -92023-6 0  9995,2 55285  70.0002 298.9807 0003479 272.2052  87.8745 15.69922319 27850,6737.256,91.724,361.465,356.777,0.0
55285.0,STARLINK-5332,PAYLOAD,2023-07-13 16:45:34,15.68783065,0.0003383,69.9996,296.2948,261.0125,99.0687,-0.0019112,-0.00213963,0.0,0 STARLINK-5332,1 55285U 23010S   23194.69831561 -.00213963  00000-0 -19112-2 0  9991,2 55285  69.9996 296.2948 0003383 261.0125  99.0687 15.68783065 28007,6740.518,91.791,364.663,360.102,0.0
55285.0,STARLINK-5332,PAYLOAD,2023-07-14 14:00:01,15.66291383,0.0003401,70.0007,293.8173,272.2959,40.6469,-0.0090872,-0.00851227,0.0,0 STARLINK-5332,1 55285U 23010S   23195.58334491 -.00851227  00000-0 -90872-2 0  9993,2 55285  70.0007 293.8173 0003401 272.2959  40.6469 15.66291383 28146,6747.664,91.937,371.824,367.234,0.0
55285.0,STARLINK-5332,PAYLOAD,2023-07-15 06:00:02,15.6504244,0.0003285,70.0009,291.9551,269.7516,199.6924,-0.010513,-0.00942315,0.0,0 STARLINK-5332,1 55285U 23010S   23196.25002315 -.00942315  00000-0 -10513-1 0  9997,2 55285  70.0009 291.9551 0003285 269.7516 199.6924 15.65042440 28246,6751.254,92.01,375.336,370.901,0.0
55285.0,STARLINK-5332,PAYLOAD,2023-07-16 14:00:01,15.62388769,0.0003401,70.0007,288.2411,275.384,137.5416,-0.010817,-0.00878852,0.0,0 STARLINK-5332,1 55285U 23010S   23197.58334491 -.00878852  00000-0 -10817-1 0  9998,2 55285  70.0007 288.2411 0003401 275.3840 137.5416 15.62388769 28455,6758.896,92.167,383.06,378.462,0.0
55285.0,STARLINK-5332,PAYLOAD,2023-07-17 02:00:01,15.61392653,0.0003475,70.0004,286.8522,268.1212,75.4046,-0.010772,-0.00844928,0.0,0 STARLINK-5332,1 55285U 23010S   23198.08334491 -.00844928  00000-0 -10772-1 0  9991,2 55285  70.0004 286.8522 0003475 268.1212  75.4046 15.61392653 28537,6761.77,92.225,385.985,381.286,0.0
55285.0,STARLINK-5332,PAYLOAD,2023-07-17 14:00:01,15.60425277,0.0003475,70.0002,285.4654,274.1815,358.2456,-0.011546,-0.00870127,0.0,0 STARLINK-5332,1 55285U 23010S   23198.58335648 -.00870127  00000-0 -11546-1 0  9991,2 55285  70.0002 285.4654 0003475 274.1815 358.2456 15.60425277 28616,6764.565,92.283,388.78,384.079,0.0
55285.0,STARLINK-5332,PAYLOAD,2023-07-18 06:00:00,15.59170083,0.0003652,70.0001,283.6191,269.0435,145.6754,-0.013146,-0.00937568,0.0,0 STARLINK-5332,1 55285U 23010S   23199.25001157 -.00937568  00000-0 -13146-1 0  9992,2 55285  70.0001 283.6191 0003652 269.0435 145.6754 15.59170083 28719,6768.195,92.357,392.531,387.588,0.0
